OBJECT_NAME,OBJECT_ID,EPOCH,MEAN_MOTION,ECCENTRICITY,INCLINATION,RA_OF_ASC_NODE,ARG_OF_PERICENTER,MEAN_ANOMALY,EPHEMERIS_TYPE,CLASSIFICATION_TYPE,NORAD_CAT_ID,ELEMENT_SET_NO,REV_AT_EPOCH,BSTAR,MEAN_MOTION_DOT,MEAN_MOTION_DDOT
STARLINK-5620,2023-014Z,2026-07-04T20:21:19.978560,14.98341290,.00033954,70.0005,148.9662,266.9414,93.1357,0,U,55414,999,18911,-.16098259E-3,-.2014E-4,0
STARLINK-5624,2023-014AB,2026-07-04T20:33:20.783520,14.98334279,.00035988,69.9996,148.9955,264.1813,95.8936,0,U,55416,999,18911,.52400513E-4,.532E-5,0
STARLINK-5030,2023-014AD,2026-07-04T20:45:20.398752,14.98357543,.00021453,70.0004,149.0261,280.9595,79.1323,0,U,55418,999,18911,.18275259E-3,.209E-4,0
STARLINK-5629,2023-014AE,2026-07-04T07:38:15.823680,14.98332779,.00036077,69.9999,150.3278,262.4739,97.6010,0,U,55419,999,18903,.41077574E-4,.397E-5,0
STARLINK-5604,2023-014AF,2026-07-04T18:08:28.624704,14.98336750,.00032042,70.0003,109.3149,266.4809,93.5984,0,U,55420,999,19008,.10644618E-3,.1178E-4,0
STARLINK-5598,2023-014AG,2026-07-04T07:50:16.396224,14.98350318,.00030133,70.0001,150.3568,269.5276,90.5538,0,U,55421,999,18903,-.49685001E-3,-.6019E-4,0
STARLINK-5006,2023-014AH,2026-07-04T21:45:26.213760,14.98331326,.00038441,69.9996,148.7644,260.0360,100.0366,0,U,55422,999,18912,.46664868E-4,.464E-5,0
STARLINK-5068,2023-014AJ,2026-07-04T21:03:24.854400,14.98324508,.00029373,69.9997,149.0670,267.1811,92.9012,0,U,55423,999,18911,-.7106248E-5,-.178E-5,0
STARLINK-5615,2023-014AL,2026-07-04T20:51:22.756896,14.98332389,.00030576,69.9997,149.0398,266.5763,93.5046,0,U,55425,999,18911,.5673153E-4,.584E-5,0
STARLINK-5638,2023-014AM,2026-07-04T14:50:52.898784,14.98330343,.0004612,69.9992,149.7701,266.8747,93.1884,0,U,55426,999,18907,-.18447525E-4,-.313E-5,0
STARLINK-5064,2023-014AP,2026-07-04T21:27:26.645760,14.98331114,.00035648,69.9993,149.1274,262.3308,97.7447,0,U,55428,999,18911,.55114379E-4,.565E-5,0
STARLINK-5645,2023-014AQ,2026-07-04T21:09:24.725088,14.98332576,.00033439,69.9995,149.0834,269.5834,90.4942,0,U,55429,999,18911,.60844055E-4,.633E-5,0
STARLINK-5642,2023-014AR,2026-07-04T22:33:50.801184,14.98332951,.0003419,69.9992,168.7436,269.7841,90.2926,0,U,55430,999,18863,.3147381E-5,-.56E-6,0
STARLINK-5643,2023-014AS,2026-07-04T14:56:53.681856,14.98338661,.00034478,69.9994,149.7862,268.4724,91.6040,0,U,55431,999,18907,-.71727161E-4,-.949E-5,0
STARLINK-5637,2023-014AT,2026-07-04T22:46:06.346848,14.98331600,.00035118,69.9995,168.7741,267.6050,92.4707,0,U,55432,999,18863,.22156121E-4,.171E-5,0
STARLINK-5570,2023-014AU,2026-07-04T22:27:50.028480,14.98332216,.00036255,69.9993,168.7292,265.0689,95.0057,0,U,55433,999,18863,.5764125E-5,-.24E-6,0
STARLINK-5621,2023-014AV,2026-07-04T16:33:21.022560,14.98332514,.00035891,69.9995,169.4759,266.1224,93.9524,0,U,55434,999,18859,.45549833E-4,.45E-5,0
STARLINK-5626,2023-014AW,2026-07-04T22:45:51.983712,14.98331205,.00035437,69.9996,168.7742,264.9403,95.1352,0,U,55435,999,18863,.42619378E-4,.416E-5,0
STARLINK-5640,2023-014AX,2026-07-04T16:39:22.272192,14.98327000,.0003237,70.0012,169.4898,267.7771,92.3017,0,U,55436,999,18859,.25311348E-4,.209E-5,0
STARLINK-5074,2023-014AZ,2026-07-04T06:37:50.064960,14.98333475,.00033329,70.0005,130.3268,263.2407,96.8373,0,U,55438,999,18952,.38452915E-4,.366E-5,0
STARLINK-5634,2023-014BA,2026-07-04T21:33:46.588032,14.98336248,.00036143,69.9995,169.0007,264.7767,95.2980,0,U,55439,999,18862,.2024944E-5,-.69E-6,0
STARLINK-5699,2023-015A,2026-07-04T21:30:37.629504,15.27568467,.00015696,43.0056,27.1170,265.1788,94.8885,0,U,55449,999,18958,-.6022243E-5,-.428E-5,0
STARLINK-5686,2023-015B,2026-07-04T19:50:53.502432,15.27580972,.00021641,43.0061,27.4602,278.7301,81.3305,0,U,55450,999,18957,.58020536E-4,.1334E-4,0
STARLINK-5656,2023-015C,2026-07-04T21:36:08.955360,15.27580125,.0001474,43.0034,27.1442,263.3956,96.6728,0,U,55451,999,18864,.63407791E-4,.1483E-4,0
STARLINK-5683,2023-015D,2026-07-04T21:47:15.166752,15.27576937,.0001564,43.0026,27.1917,253.0675,107.0005,0,U,55452,999,18864,.36975902E-4,.755E-5,0
STARLINK-5684,2023-015E,2026-07-04T20:36:56.465568,15.27584236,.00013116,43.0057,26.8378,270.7032,89.3669,0,U,55453,999,18864,.16131525E-4,.182E-5,0
STARLINK-5636,2023-015F,2026-07-04T20:51:44.306784,15.27584109,.00011976,43.0069,26.9071,275.5389,84.5326,0,U,55454,999,18864,.10667853E-3,.2675E-4,0
STARLINK-5680,2023-015G,2026-07-04T21:41:41.929728,15.27580523,.00017851,43.0037,27.1714,255.6266,104.4387,0,U,55455,999,18864,.68667279E-4,.1628E-4,0
STARLINK-5058,2023-015H,2026-07-04T20:48:02.492928,15.27577949,.00013235,43.0049,26.8951,267.6635,92.4066,0,U,55456,999,18864,.37680755E-4,.775E-5,0
STARLINK-5682,2023-015J,2026-07-04T22:16:39.960192,15.27566068,.00010275,43.0067,26.4974,255.9246,104.1491,0,U,55457,999,18865,.64567704E-4,.1514E-4,0
STARLINK-5020,2023-015K,2026-07-04T07:06:32.408352,15.27579402,.00014675,43.0057,30.3487,276.1545,83.9140,0,U,55458,999,18855,.37581954E-4,.772E-5,0
STARLINK-5669,2023-015L,2026-07-04T14:46:13.263456,15.27583606,.00013712,43.0057,28.4477,262.2268,97.8428,0,U,55459,999,18860,-.9201444E-5,-.515E-5,0
STARLINK-5678,2023-015M,2026-07-04T14:51:46.189440,15.27580126,.00022581,43.0072,28.4771,275.5746,84.4848,0,U,55460,999,18860,-.35907457E-4,-.1251E-4,0
STARLINK-5646,2023-015N,2026-07-04T13:06:31.133952,15.27587581,.00014224,43.0054,28.7876,263.7932,96.2757,0,U,55461,999,18859,.72676593E-4,.1739E-4,0
STARLINK-5673,2023-015P,2026-07-04T22:07:23.489760,15.27587006,.00011967,43.0054,26.4415,276.4923,83.5792,0,U,55462,999,18865,.31166378E-4,.596E-5,0
STARLINK-5677,2023-015Q,2026-07-04T21:18:12.658464,15.18533843,.00059155,43.0024,36.4386,247.0479,112.9745,0,U,55463,999,18853,.11156963E-2,.23314E-3,0
STARLINK-5676,2023-015R,2026-07-04T14:37:00.583392,15.27537519,.00014744,43.0056,28.3950,257.0522,103.0165,0,U,55464,999,18860,.61008736E-3,.16542E-3,0
STARLINK-5674,2023-015S,2026-07-04T22:12:57.184704,15.27580534,.00011832,43.0047,26.4726,271.7517,88.3200,0,U,55465,999,18865,-.48628773E-4,-.16E-4,0
STARLINK-5628,2023-015T,2026-07-04T14:53:37.045824,15.27580505,.00018233,43.0063,28.4792,274.1425,85.9218,0,U,55466,999,18860,.48252579E-4,.1066E-4,0
STARLINK-5679,2023-015U,2026-07-04T22:01:50.807424,15.27576474,.00013682,43.0022,26.4104,269.7481,90.3214,0,U,55467,999,18865,.11264398E-4,.48E-6,0
STARLINK-5672,2023-015V,2026-07-04T14:42:32.612544,15.27558362,.00011022,43.0049,28.4223,253.5535,106.5196,0,U,55468,999,18860,.81003972E-4,.1966E-4,0
STARLINK-5681,2023-015W,2026-07-04T22:18:31.125888,15.27574400,.00012566,43.0050,26.5020,272.9236,87.1472,0,U,55469,999,18865,.88337729E-4,.2169E-4,0
STARLINK-5708,2023-015X,2026-07-04T14:48:04.414464,15.27577158,.00012832,43.0049,28.4525,273.9644,86.1061,0,U,55470,999,18860,.38423813E-4,.795E-5,0
STARLINK-5711,2023-015Y,2026-07-04T22:05:33.423936,15.27589900,.00008798,43.0036,26.4265,249.9783,110.0974,0,U,55471,999,18865,.11108862E-3,.2797E-4,0
STARLINK-5705,2023-015Z,2026-07-04T19:33:45.652608,15.27577682,.00015375,43.0049,20.3288,270.3808,89.6867,0,U,55472,999,18871,.37937179E-4,.782E-5,0
STARLINK-5689,2023-015AB,2026-07-04T21:02:49.706016,15.27578328,.00012937,43.0036,38.2519,266.2771,93.7933,0,U,55474,999,18851,.2771188E-4,.5E-5,0
STARLINK-5650,2023-015AC,2026-07-04T14:59:10.256064,15.27577487,.00019153,43.0064,28.5069,274.1638,85.8994,0,U,55475,999,18860,.25636099E-4,.443E-5,0
STARLINK-5685,2023-015AE,2026-07-04T21:39:09.483840,15.27579363,.00010781,43.0035,19.2647,273.8657,86.2071,0,U,55477,999,18873,.5576871E-4,.1273E-4,0
STARLINK-5691,2023-015AF,2026-07-04T22:15:01.126368,15.27577399,.00017568,43.0055,16.0301,263.5693,96.4959,0,U,55478,999,18877,.80847891E-4,.1963E-4,0
STARLINK-5688,2023-015AG,2026-07-04T14:30:55.933920,15.27581591,.0001884,43.0062,21.3285,271.2354,88.8282,0,U,55479,999,18868,.49205405E-4,.1092E-4,0
STARLINK-5690,2023-015AH,2026-07-04T07:41:26.791872,15.27577064,.00014788,43.0062,40.8812,265.3329,94.7354,0,U,55480,999,18843,.39922645E-4,.836E-5,0
STARLINK-5694,2023-015AJ,2026-07-04T20:40:37.632288,15.27581055,.00014904,43.0043,38.1455,266.7959,93.2723,0,U,55481,999,18851,.36443079E-4,.741E-5,0
STARLINK-5692,2023-015AL,2026-07-04T07:35:55.023648,15.27578757,.00015531,43.0065,40.9360,267.0692,92.9982,0,U,55483,999,18843,.16950051E-4,.204E-5,0
STARLINK-5696,2023-015AM,2026-07-04T20:55:25.560768,15.27580241,.00014425,43.0030,38.2129,267.9221,92.1465,0,U,55484,999,18851,.34158362E-4,.678E-5,0
STARLINK-5695,2023-015AN,2026-07-04T20:51:43.961184,15.27573907,.00014915,43.0023,38.1966,258.0827,101.9858,0,U,55485,999,18851,.26686755E-4,.472E-5,0
STARLINK-5704,2023-015AP,2026-07-04T22:20:19.180320,15.27573377,.00011578,43.0026,37.7515,266.7578,93.3142,0,U,55486,999,18852,-.24991243E-4,-.95E-5,0
STARLINK-5701,2023-015AQ,2026-07-04T20:29:31.699968,15.27594291,.00018787,43.0065,38.0858,265.5768,94.4869,0,U,55487,999,18851,-.23874613E-4,-.92E-5,0
STARLINK-5706,2023-015AR,2026-07-04T00:01:47.246592,15.27576743,.00015084,43.0062,42.8588,267.9200,92.1479,0,U,55488,999,18838,.31914111E-4,.616E-5,0
STARLINK-5371,2023-015AS,2026-07-04T22:09:13.545216,15.27573895,.00017311,43.0051,37.7461,262.8000,97.2655,0,U,55489,999,18852,.93147027E-4,.2301E-4,0
STARLINK-5373,2023-015AT,2026-07-04T21:32:12.662592,15.27583145,.0001215,43.0054,37.5409,273.7523,86.3190,0,U,55490,999,18852,.59973377E-4,.1389E-4,0
STARLINK-5364,2023-015AU,2026-07-04T22:01:20.850816,15.27587446,.00013539,43.0061,19.3639,229.2109,130.8626,0,U,55491,999,18873,.97012959E-4,.2409E-4,0
STARLINK-5013,2023-015AV,2026-07-04T20:33:12.776832,15.27584263,.00016468,43.0054,38.0875,268.9932,91.0731,0,U,55492,999,18851,.52201318E-4,.1175E-4,0
STARLINK-5362,2023-015AW,2026-07-04T15:23:00.068928,15.27575468,.00013342,43.0054,39.0639,272.6785,87.3914,0,U,55493,999,18848,.72190767E-4,.1725E-4,0
STARLINK-5344,2023-015AX,2026-07-04T22:11:04.200288,15.27594942,.00017971,43.0056,37.7470,268.3282,91.7363,0,U,55494,999,18852,-.17848626E-3,-.5173E-4,0
